{
    "links": {
        "self": "http://www.neowsapp.com/rest/v1/neo/3836213?api_key=iIulBulltgU6a56xZRHN4H3l9WmuAYTsLGpBGhQ2"
    },
    "id": "3836213",
    "neo_reference_id": "3836213",
    "name": "(2018 VQ8)",
    "designation": "2018 VQ8",
    "nasa_jpl_url": "http://ssd.jpl.nasa.gov/sbdb.cgi?sstr=3836213",
    "absolute_magnitude_h": 24.9,
    "estimated_diameter": {
        "kilometers": {
            "estimated_diameter_min": 0.0278326768,
            "estimated_diameter_max": 0.0622357573
        },
        "meters": {
            "estimated_diameter_min": 27.8326768072,
            "estimated_diameter_max": 62.2357573367
        },
        "miles": {
            "estimated_diameter_min": 0.0172944182,
            "estimated_diameter_max": 0.0386714948
        },
        "feet": {
            "estimated_diameter_min": 91.3145593761,
            "estimated_diameter_max": 204.1855621004
        }
    },
    "is_potentially_hazardous_asteroid": false,
    "close_approach_data": [
        {
            "close_approach_date": "2018-08-14",
            "close_approach_date_full": "2018-Aug-14 09:21",
            "epoch_date_close_approach": 1534238460000,
            "relative_velocity": {
                "kilometers_per_second": "12.8269609445",
                "kilometers_per_hour": "46177.0594000765",
                "miles_per_hour": "28692.6289366753"
            },
            "miss_distance": {
                "astronomical": "0.0921173052",
                "lunar": "35.8336317228",
                "kilometers": "13780552.648059924",
                "miles": "8562838.3514139912"
            },
            "orbiting_body": "Mars"
        },
        {
            "close_approach_date": "2018-11-14",
            "close_approach_date_full": "2018-Nov-14 16:31",
            "epoch_date_close_approach": 1542213060000,
            "relative_velocity": {
                "kilometers_per_second": "9.7416362622",
                "kilometers_per_hour": "35069.8905437575",
                "miles_per_hour": "21791.0661548142"
            },
            "miss_distance": {
                "astronomical": "0.0461785915",
                "lunar": "17.9634720935",
                "kilometers": "6908218.928000105",
                "miles": "4292568.192827249"
            },
            "orbiting_body": "Earth"
        }
    ],
    "orbital_data": {
        "orbit_id": "5",
        "orbit_determination_date": "2019-01-18 07:14:09",
        "first_observation_date": "2018-11-12",
        "last_observation_date": "2018-11-21",
        "data_arc_in_days": 9,
        "observations_used": 42,
        "orbit_uncertainty": "8",
        "minimum_orbit_intersection": ".0114915",
        "jupiter_tisserand_invariant": "3.196",
        "epoch_osculation": "2458437.5",
        "eccentricity": ".5987297748198338",
        "semi_major_axis": "2.483971419868741",
        "inclination": "5.643346364983746",
        "ascending_node_longitude": "43.77855981740902",
        "orbital_period": "1429.941658993167",
        "perihelion_distance": ".9967437709918266",
        "perihelion_argument": "346.7807413502119",
        "aphelion_distance": "3.971199068745654",
        "perihelion_time": "2458421.365623118757",
        "mean_anomaly": "4.061966892647355",
        "mean_motion": ".2517585229690271",
        "equinox": "J2000",
        "orbit_class": {
            "orbit_class_type": "APO",
            "orbit_class_description": "Near-Earth asteroid orbits which cross the Earth’s orbit similar to that of 1862 Apollo",
            "orbit_class_range": "a (semi-major axis) > 1.0 AU; q (perihelion) < 1.017 AU"
        }
    },
    "is_sentry_object": false
}